NORAD_CAT_ID,OBJECT_NAME,OBJECT_TYPE,EPOCH,MEAN_MOTION,ECCENTRICITY,INCLINATION,RA_OF_ASC_NODE,ARG_OF_PERICENTER,MEAN_ANOMALY,BSTAR,MEAN_MOTION_DOT,MEAN_MOTION_DDOT,TLE_LINE0,TLE_LINE1,TLE_LINE2,SEMIMAJOR_AXIS,PERIOD,APOGEE,PERIGEE,DECAYED
54807.0,STARLINK-5410,PAYLOAD,2023-09-24 19:00:17,15.08847701,0.0001233,53.2154,95.0834,82.1431,277.9701,0.00011703,1.576e-05,0.0,0 STARLINK-5410,1 54807U 22175BB  23267.79187105  .00001576  00000-0  11703-3 0  9993,2 54807  53.2154  95.0834 0001233  82.1431 277.9701 15.08847701 42575,6917.857,95.437,540.575,538.869,0.0
54807.0,STARLINK-5410,PAYLOAD,2023-09-24 22:11:03,15.08849606,0.0001138,53.2155,94.488,91.7541,268.3581,0.00024577,3.627e-05,0.0,0 STARLINK-5410,1 54807U 22175BB  23267.92434958  .00003627  00000-0  24577-3 0  9991,2 54807  53.2155  94.4880 0001138  91.7541 268.3581 15.08849606 44750,6917.851,95.437,540.503,538.929,0.0
54807.0,STARLINK-5410,PAYLOAD,2023-09-25 06:07:59,15.08850631,0.0001242,53.2158,93.0002,88.7292,271.3843,0.00016076,2.272e-05,0.0,0 STARLINK-5410,1 54807U 22175BB  23268.25554869  .00002272  00000-0  16076-3 0  9992,2 54807  53.2158  93.0002 0001242  88.7292 271.3843 15.08850631 44800,6917.848,95.437,540.572,538.854,0.0
54807.0,STARLINK-5410,PAYLOAD,2023-09-25 18:51:04,15.0884816,0.0001356,53.2159,90.6203,94.644,265.4707,0.00018992,2.737e-05,0.0,0 STARLINK-5410,1 54807U 22175BB  23268.78546905  .00002737  00000-0  18992-3 0  9997,2 54807  53.2159  90.6203 0001356  94.6440 265.4707 15.08848160 44889,6917.855,95.437,540.659,538.782,0.0
54807.0,STARLINK-5410,PAYLOAD,2023-09-26 17:06:28,15.08838435,0.0001403,53.2161,86.4565,94.2785,265.8368,-3.8669e-05,-9.03e-06,0.0,0 STARLINK-5410,1 54807U 22175BB  23269.71283344 -.00000903  00000-0 -38669-4 0  9995,2 54807  53.2161  86.4565 0001403  94.2785 265.8368 15.08838435 42864,6917.885,95.438,540.721,538.78,0.0
54807.0,STARLINK-5410,PAYLOAD,2023-09-27 12:11:06,15.08835679,0.0001361,53.2167,82.8896,89.9596,270.1552,1.5173e-05,-4.6e-07,0.0,0 STARLINK-5410,1 54807U 22175BB  23270.50771811 -.00000046  00000-0  15173-4 0  9997,2 54807  53.2167  82.8896 0001361  89.9596 270.1552 15.08835679 45146,6917.894,95.438,540.7,538.817,0.0
54807.0,STARLINK-5410,PAYLOAD,2023-09-27 18:32:39,15.08841992,0.0001353,53.2166,81.6998,95.3133,264.8014,3.0528e-06,-2.39e-06,0.0,0 STARLINK-5410,1 54807U 22175BB  23270.77267463 -.00000239  00000-0  30528-5 0  9995,2 54807  53.2166  81.6998 0001353  95.3133 264.8014 15.08841992 43027,6917.874,95.437,540.675,538.803,0.0
54807.0,STARLINK-5410,PAYLOAD,2023-09-28 15:12:39,15.08839307,0.0001388,53.2171,77.8345,99.604,260.5109,9.5171e-05,1.227e-05,0.0,0 STARLINK-5410,1 54807U 22175BB  23271.63379622  .00001227  00000-0  95171-4 0  9993,2 54807  53.2171  77.8345 0001388  99.6040 260.5109 15.08839307 45317,6917.883,95.438,540.708,538.787,0.0
54807.0,STARLINK-5410,PAYLOAD,2023-09-28 16:48:03,15.08841487,0.0001383,53.2168,77.5364,105.812,254.3024,7.1116e-05,8.44e-06,0.0,0 STARLINK-5410,1 54807U 22175BB  23271.70003547  .00000844  00000-0  71116-4 0  9998,2 54807  53.2168  77.5364 0001383 105.8120 254.3024 15.08841487 45325,6917.876,95.437,540.698,538.784,0.0
54807.0,STARLINK-5410,PAYLOAD,2023-09-29 11:52:40,15.08840998,0.0001411,53.2174,73.9691,104.6748,255.44,9.9086e-05,1.289e-05,0.0,0 STARLINK-5410,1 54807U 22175BB  23272.49491657  .00001289  00000-0  99086-4 0  9998,2 54807  53.2174  73.9691 0001411 104.6748 255.4400 15.08840998 45449,6917.877,95.437,540.718,538.766,0.0
54807.0,STARLINK-5410,PAYLOAD,2023-09-29 18:14:13,15.08844991,0.0001355,53.2174,72.7798,99.935,260.1796,0.00012628,1.723e-05,0.0,0 STARLINK-5410,1 54807U 22175BB  23272.75987350  .00001723  00000-0  12628-3 0  9996,2 54807  53.2174  72.7798 0001355  99.9350 260.1796 15.08844991 43329,6917.865,95.437,540.668,538.793,0.0
54807.0,STARLINK-5410,PAYLOAD,2023-09-30 18:05:00,15.08844934,0.0001387,53.2179,68.3185,78.3245,281.7903,0.00010036,1.31e-05,0.0,0 STARLINK-5410,1 54807U 22175BB  23273.75347515  .00001310  00000-0  10036-3 0  9993,2 54807  53.2179  68.3185 0001387  78.3245 281.7903 15.08844934 43476,6917.865,95.437,540.69,538.771,0.0
54807.0,STARLINK-5410,PAYLOAD,2023-10-01 03:37:19,15.08841937,0.0001434,53.2178,66.5329,86.2379,273.8777,7.3584e-05,8.83e-06,0.0,0 STARLINK-5410,1 54807U 22175BB  23274.15091708  .00000883  00000-0  73584-4 0  9990,2 54807  53.2178  66.5329 0001434  86.2379 273.8777 15.08841937 45691,6917.874,95.437,540.731,538.747,0.0
54807.0,STARLINK-5410,PAYLOAD,2023-10-01 19:31:09,15.08850765,0.0001367,53.2177,63.5591,86.1201,273.9947,0.00011733,1.58e-05,0.0,0 STARLINK-5410,1 54807U 22175BB  23274.81330869  .00001580  00000-0  11733-3 0  9999,2 54807  53.2177  63.5591 0001367  86.1201 273.9947 15.08850765 45796,6917.847,95.437,540.658,538.767,0.0
54807.0,STARLINK-5410,PAYLOAD,2023-10-02 03:28:06,15.08838182,0.0001351,53.2178,62.0741,86.3086,273.8061,6.0986e-05,6.83e-06,0.0,0 STARLINK-5410,1 54807U 22175BB  23275.14451778  .00000683  00000-0  60986-4 0  9997,2 54807  53.2178  62.0741 0001351  86.3086 273.8061 15.08838182 43685,6917.886,95.438,540.686,538.816,0.0
54807.0,STARLINK-5410,PAYLOAD,2023-10-02 19:21:57,15.08841069,0.0001566,53.2186,59.0977,96.834,263.283,-2.3889e-07,-2.92e-06,0.0,0 STARLINK-5410,1 54807U 22175BB  23275.80691847 -.00000292  00000-0 -23889-6 0  9994,2 54807  53.2186  59.0977 0001566  96.8340 263.2830 15.08841069 45944,6917.877,95.437,540.825,538.659,0.0
54807.0,STARLINK-5410,PAYLOAD,2023-10-03 14:26:35,15.08842263,0.0001443,53.2189,55.53,97.7331,262.3825,7.6432e-05,9.29e-06,0.0,0 STARLINK-5410,1 54807U 22175BB  23276.60179657  .00000929  00000-0  76432-4 0  9998,2 54807  53.2189  55.5300 0001443  97.7331 262.3825 15.08842263 46067,6917.873,95.437,540.737,538.74,0.0
54807.0,STARLINK-5410,PAYLOAD,2023-10-03 17:37:21,15.08845621,0.0001541,53.218,54.9357,95.7321,264.3847,9.7849e-05,1.27e-05,0.0,0 STARLINK-5410,1 54807U 22175BB  23276.73427621  .00001270  00000-0  97849-4 0  9994,2 54807  53.2180  54.9357 0001541  95.7321 264.3847 15.08845621 43928,6917.863,95.437,540.794,538.662,0.0
54807.0,STARLINK-5410,PAYLOAD,2023-10-04 09:31:13,15.08840158,0.0001587,53.2186,51.962,97.3014,262.8158,0.00016838,2.393e-05,0.0,0 STARLINK-5410,1 54807U 22175BB  23277.39667957  .00002393  00000-0  16838-3 0  9990,2 54807  53.2186  51.9620 0001587  97.3014 262.8158 15.08840158 44021,6917.88,95.438,540.843,538.647,0.0
54807.0,STARLINK-5410,PAYLOAD,2023-10-04 14:17:22,15.08847666,0.0001606,53.2183,51.0701,97.3623,262.7551,0.00027047,4.02e-05,0.0,0 STARLINK-5410,1 54807U 22175BB  23277.59539582  .00004020  00000-0  27047-3 0  9997,2 54807  53.2183  51.0701 0001606  97.3623 262.7551 15.08847666 46217,6917.857,95.437,540.833,538.611,0.0
54807.0,STARLINK-5410,PAYLOAD,2023-10-04 17:28:08,15.08854332,0.0001492,53.2174,50.4771,81.0143,279.1018,0.00030023,4.495e-05,0.0,0 STARLINK-5410,1 54807U 22175BB  23277.72787314  .00004495  00000-0  30023-3 0  9994,2 54807  53.2174  50.4771 0001492  81.0143 279.1018 15.08854332 44077,6917.837,95.437,540.734,538.669,0.0
54807.0,STARLINK-5410,PAYLOAD,2023-10-05 01:25:04,15.08840529,0.0001695,53.2183,48.9888,83.9587,276.1598,8.5097e-05,1.067e-05,0.0,0 STARLINK-5410,1 54807U 22175BB  23278.05907965  .00001067  00000-0  85097-4 0  9991,2 54807  53.2183  48.9888 0001695  83.9587 276.1598 15.08840529 44125,6917.879,95.438,540.916,538.571,0.0
54807.0,STARLINK-5410,PAYLOAD,2023-10-05 14:08:09,15.08841678,0.0001604,53.2177,46.6132,88.1425,271.9751,5.5006e-05,5.88e-06,0.0,0 STARLINK-5410,1 54807U 22175BB  23278.58899894  .00000588  00000-0  55006-4 0  9994,2 54807  53.2177  46.6132 0001604  88.1425 271.9751 15.08841678 46361,6917.875,95.437,540.85,538.631,0.0
54807.0,STARLINK-5410,PAYLOAD,2023-10-05 17:18:55,15.08853954,0.0001344,53.2176,46.0164,82.2928,277.8216,0.00025921,3.841e-05,0.0,0 STARLINK-5410,1 54807U 22175BB  23278.72147251  .00003841  00000-0  25921-3 0  9990,2 54807  53.2176  46.0164 0001344  82.2928 277.8216 15.08853954 44227,6917.838,95.437,540.632,538.773,0.0
54807.0,STARLINK-5410,PAYLOAD,2023-10-06 01:15:51,15.08834859,0.0001737,53.2181,44.5296,86.5665,273.5525,-5.4954e-05,-1.162e-05,0.0,0 STARLINK-5410,1 54807U 22175BB  23279.05268193 -.00001162  00000-0 -54954-4 0  9991,2 54807  53.2181  44.5296 0001737  86.5665 273.5525 15.08834859 44277,6917.896,95.438,540.963,538.559,0.0
54807.0,STARLINK-5410,PAYLOAD,2023-10-06 13:58:57,15.08832619,0.0001528,53.2182,42.1518,97.5347,262.5818,-9.2845e-05,-1.765e-05,0.0,0 STARLINK-5410,1 54807U 22175BB  23279.58260431 -.00001765  00000-0 -92845-4 0  9996,2 54807  53.2182  42.1518 0001528  97.5347 262.5818 15.08832619 46510,6917.903,95.438,540.825,538.711,0.0
54807.0,STARLINK-5410,PAYLOAD,2023-10-06 15:34:20,15.08835267,0.0001409,53.2173,41.8574,99.0295,261.0857,2.5643e-06,-2.47e-06,0.0,0 STARLINK-5410,1 54807U 22175BB  23279.64884388 -.00000247  00000-0  25643-5 0  9992,2 54807  53.2173  41.8574 0001409  99.0295 261.0857 15.08835267 46525,6917.895,95.438,540.735,538.785,0.0
54807.0,STARLINK-5410,PAYLOAD,2023-10-07 09:03:34,15.08835295,0.0001549,53.2195,38.5859,96.5076,263.6092,0.00010887,1.445e-05,0.0,0 STARLINK-5410,1 54807U 22175BB  23280.37748766  .00001445  00000-0  10887-3 0  9995,2 54807  53.2195  38.5859 0001549  96.5076 263.6092 15.08835295 44474,6917.895,95.438,540.831,538.688,0.0
54807.0,STARLINK-5410,PAYLOAD,2023-10-07 13:49:44,15.0884124,0.0001632,53.2193,37.6924,87.5411,272.5768,0.00017483,2.496e-05,0.0,0 STARLINK-5410,1 54807U 22175BB  23280.57620575  .00002496  00000-0  17483-3 0  9990,2 54807  53.2193  37.6924 0001632  87.5411 272.5768 15.08841240 46660,6917.877,95.437,540.871,538.613,0.0
54807.0,STARLINK-5410,PAYLOAD,2023-10-07 15:25:07,15.08843076,0.0001629,53.219,37.3949,87.3461,272.7717,0.00021689,3.166e-05,0.0,0 STARLINK-5410,1 54807U 22175BB  23280.64244528  .00003166  00000-0  21689-3 0  9996,2 54807  53.2190  37.3949 0001629  87.3461 272.7717 15.08843076 46676,6917.871,95.437,540.863,538.609,0.0
